OBJECT_NAME,OBJECT_ID,EPOCH,MEAN_MOTION,ECCENTRICITY,INCLINATION,RA_OF_ASC_NODE,ARG_OF_PERICENTER,MEAN_ANOMALY,EPHEMERIS_TYPE,CLASSIFICATION_TYPE,NORAD_CAT_ID,ELEMENT_SET_NO,REV_AT_EPOCH,BSTAR,MEAN_MOTION_DOT,MEAN_MOTION_DDOT
HISPASAT 30W-5,2010-070A,2026-07-13T06:28:42.382272,1.00270775,.00055268,0.0257,114.2843,12.1434,231.8998,0,U,37264,999,5344,0,-.219E-5,0
KOREASAT 6,2010-070B,2026-07-13T05:40:12.253152,1.00269912,.00024919,0.0301,53.7531,76.3439,45.9777,0,U,37265,999,5703,0,0,0
BEIDOU-2 IGSO-3,2011-013A,2026-07-12T12:18:07.725024,1.00260977,.0035266,62.4426,39.9128,183.3051,358.3524,0,U,37384,999,5591,0,-.165E-5,0
INTELSAT 28 (IS-28),2011-016A,2026-07-13T06:24:24.244128,1.00271404,.00036765,1.8712,82.2976,39.7511,233.4790,0,U,37392,999,5354,0,-.23E-5,0
YAHSAT 1A,2011-016B,2026-07-13T00:01:37.613856,1.00273826,.00032304,0.0260,57.0637,58.4864,228.2504,0,U,37393,999,4266,0,0,0
SBIRS GEO-1 (USA 230),2011-019A,2026-07-13T05:09:22.708224,1.00272193,.00019756,4.5923,53.1003,52.0962,315.0429,0,U,37481,999,5566,0,.94E-6,0
TELSTAR 14R,2011-021A,2026-07-13T01:11:15.148032,1.00270414,.00016279,0.0815,84.7896,0.0686,160.8924,0,U,37602,999,5609,0,-.282E-5,0
GSAT-8,2011-022A,2026-07-13T05:10:15.125376,1.00272478,.00027424,2.1959,81.5069,165.3995,176.8323,0,U,37605,999,5347,0,.8E-6,0
ST-2,2011-022B,2026-07-13T03:37:01.111584,1.00270764,.00014735,0.0296,60.0019,72.2415,301.0698,0,U,37606,999,5553,0,0,0
ZHONGXING-10,2011-026A,2026-07-13T03:36:16.182720,1.00268460,.00032408,1.1105,83.9023,23.9044,322.7658,0,U,37677,999,5525,0,-.191E-5,0
SES-3,2011-035A,2026-07-13T06:44:01.038912,1.00271328,.0001903,1.3915,82.7987,30.4202,175.9548,0,U,37748,999,5485,0,-.106E-5,0
KAZSAT-2,2011-035B,2026-07-13T03:36:31.159296,1.00268719,.00021263,0.0249,116.1731,58.4606,257.0141,0,U,37749,999,5365,0,-.199E-5,0
BEIDOU-2 IGSO-4,2011-038A,2026-07-12T21:52:21.720000,1.00279714,.01603423,54.6038,165.4445,231.4539,316.2369,0,U,37763,999,5490,0,-.17E-6,0
ASTRA 1N,2011-041A,2026-07-13T06:42:41.042016,1.00270954,.00057248,0.0603,4.5266,110.4693,296.0320,0,U,37775,999,4478,0,.117E-5,0
BSAT-3C (JCSAT-110R),2011-041B,2026-07-13T02:00:40.102272,1.00271122,.00002359,0.0247,327.0618,264.4469,199.5789,0,U,37776,999,5072,0,-.352E-5,0
PAKSAT-1R,2011-042A,2026-07-13T05:05:23.090784,1.00267434,.00030557,0.7541,84.3542,349.3592,331.7270,0,U,37779,999,5473,0,.151E-5,0
SES-2,2011-049A,2026-07-13T06:52:49.265184,1.00270596,.00026762,0.1229,91.2873,21.8430,194.2382,0,U,37809,999,5422,0,-.199E-5,0
ARABSAT-5C,2011-049B,2026-07-13T06:42:56.017728,1.00270615,.00035001,0.0488,15.8385,112.1267,283.9115,0,U,37810,999,5429,0,.12E-5,0
EUTELSAT 7 WEST A,2011-051A,2026-07-13T06:35:04.272000,1.00270599,.00045449,0.0636,343.4914,143.6450,255.4610,0,U,37816,999,5413,0,-.63E-6,0
QUETZSAT 1,2011-054A,2026-07-13T07:51:38.508192,1.00271597,.0002549,0.0103,25.2057,96.2447,210.6753,0,U,37826,999,5013,0,-.245E-5,0
INTELSAT 18 (IS-18),2011-056A,2026-07-13T04:03:13.599360,1.00269998,.00016523,0.0153,329.8836,153.9874,47.9804,0,U,37834,999,5407,0,.5E-6,0
EUTELSAT 16A,2011-057A,2026-07-13T06:41:48.625728,1.00273113,.00058132,0.0387,14.6184,94.2069,298.7779,0,U,37836,999,759,0,.101E-5,0
VIASAT-1,2011-059A,2026-07-13T05:39:38.855232,1.00270743,.00020823,0.0244,41.9751,70.3268,148.6285,0,U,37843,999,4758,0,0,0
ASIASAT 7,2011-069A,2026-07-13T13:57:56.269728,1.00272720,.0001206,0.0149,47.6580,34.5800,164.2101,0,U,37933,999,4512,0,-.338E-5,0
BEIDOU-2 IGSO-5,2011-073A,2026-07-02T17:30:18.330912,1.00270596,.01145273,47.6496,271.3544,222.0502,141.5350,0,U,37948,999,5329,0,-.128E-5,0
LUCH-5A,2011-074B,2026-07-13T07:58:53.725728,1.00272864,.00025638,8.8178,73.4223,60.6409,83.8497,0,U,37951,999,5331,0,-.6E-6,0
NIGCOMSAT 1R,2011-077A,2026-07-13T05:06:37.971936,1.00269675,.00026309,0.0257,120.6318,227.4501,62.1576,0,U,38014,999,5321,0,.143E-5,0
WGS F4 (USA 233),2012-003A,2026-07-13T03:37:08.599872,1.00267803,.00005663,0.0275,50.0008,108.2158,275.5285,0,U,38070,999,4440,0,0,0
SES-4,2012-007A,2026-07-12T21:57:42.497280,1.00272159,.00024575,0.0195,62.5569,53.4072,122.2685,0,U,38087,999,5248,0,-.169E-5,0
BEIDOU-2 G5,2012-008A,2026-07-13T03:28:39.412704,1.00269601,.00073296,3.6351,69.5276,269.0592,63.2758,0,U,38091,999,5262,0,.52E-6,0
MUOS-1,2012-009A,2026-07-13T05:50:26.711808,1.00271914,.00570216,5.5277,47.1202,3.3870,228.2754,0,U,38093,999,5270,0,-.134E-5,0
INTELSAT 22 (IS-22),2012-011A,2026-07-13T05:29:38.908320,1.00271284,.0001967,0.0432,73.1016,61.2705,311.2416,0,U,38098,999,745,0,0,0
APSTAR-7,2012-013A,2026-07-13T04:34:51.667392,1.00271057,.00029404,0.0155,74.5802,49.2420,312.4696,0,U,38107,999,5206,0,-.104E-5,0
YAHSAT 1B,2012-016A,2026-07-13T01:42:49.313376,1.00273295,.00034999,0.0884,88.7099,45.3416,230.2049,0,U,38245,999,4586,0,.124E-5,0
AEHF-2 (USA 235),2012-019A,2026-07-13T00:48:38.471040,1.00272403,.00022239,6.7084,57.2934,54.8872,174.4022,0,U,38254,999,724,0,-.142E-5,0
JCSAT-13,2012-023A,2026-07-13T05:29:58.234272,1.00270613,.00022307,0.0129,59.2397,56.8791,21.4925,0,U,38331,999,5180,0,-.359E-5,0
VINASAT-2,2012-023B,2026-07-13T05:32:13.019136,1.00271228,.00020951,0.0138,357.1578,118.0631,30.7908,0,U,38332,999,4692,0,-.331E-5,0
NIMIQ 6,2012-026A,2026-07-13T06:50:54.404160,1.00271311,.00025267,0.0166,16.5750,97.6039,188.6078,0,U,38342,999,5067,0,-.176E-5,0
ZHONGXING-2A,2012-028A,2026-07-13T02:52:21.571968,1.00271360,.00014114,1.5180,83.5519,36.8104,311.9867,0,U,38352,999,5155,0,-.296E-5,0
INTELSAT 19 (IS-19),2012-030A,2026-07-13T02:16:38.571168,1.00271181,.000306,0.0120,58.0489,67.3891,5.6958,0,U,38356,999,5071,0,-.59E-6,0
ECHOSTAR 17,2012-035A,2026-07-13T07:29:52.916064,1.00271168,.00020676,0.0038,99.8957,10.3898,186.2739,0,U,38551,999,5132,0,-.78E-6,0
METEOSAT-10 (MSG-3),2012-035B,2026-07-13T06:37:19.056000,1.00270379,.00010819,4.7312,60.8889,17.0285,312.6199,0,U,38552,999,5111,0,-.14E-6,0
SES-5,2012-036A,2026-07-12T09:10:38.808768,1.00270430,.00018809,0.0464,319.3864,153.8533,319.6709,0,U,38652,999,4471,0,.35E-6,0
INTELSAT 20 (IS-20),2012-043A,2026-07-13T05:29:38.908320,1.00272631,.00012969,0.0123,63.9668,108.1868,269.8663,0,U,38740,999,5100,0,-.27E-6,0
HYLAS 2,2012-043B,2026-07-13T07:06:01.992096,1.00270947,.00023598,2.4922,80.7500,56.5842,187.7715,0,U,38741,999,5103,0,-.263E-5,0
INTELSAT 21 (IS-21),2012-045A,2026-07-13T02:55:20.107200,1.00275983,.00017022,0.0180,36.3687,85.8183,154.6640,0,U,38749,999,5078,0,-.287E-5,0
ASTRA 2F,2012-051A,2026-07-13T06:45:18.290880,1.00265196,.00022582,0.0594,238.6394,302.3763,239.6458,0,U,38778,999,4139,0,.147E-5,0
GSAT-10,2012-051B,2026-07-13T03:35:31.254720,1.00271396,.00073701,0.0974,265.2051,188.0823,334.5972,0,U,38779,999,5035,0,-.166E-5,0
INTELSAT 23 (IS-23),2012-057A,2026-07-13T07:35:38.606784,1.00274015,.00003199,0.0135,19.9646,172.9508,159.1922,0,U,38867,999,5021,0,-.288E-5,0
BEIDOU-2 G6,2012-059A,2026-07-13T01:53:10.819680,1.00274143,.0008826,4.4833,73.2399,327.2041,2.7777,0,U,38953,999,5016,0,-.181E-5,0
LUCH-5B,2012-061A,2026-07-12T22:03:38.606112,1.00270627,.00038331,10.5358,49.6194,145.7513,50.0812,0,U,38977,999,4986,0,-.146E-5,0
YAMAL 300K,2012-061B,2026-07-13T04:04:06.014784,1.00268778,.00005955,0.0225,257.4799,357.0276,280.5265,0,U,38978,999,4989,0,.68E-6,0
STAR ONE C3,2012-062A,2026-07-13T07:51:38.508192,1.00267327,.00023373,0.0235,39.6246,89.2187,205.2905,0,U,38991,999,5002,0,0,0
EUTELSAT 21B,2012-062B,2026-07-13T06:43:18.481728,1.00269449,.00032253,0.0659,9.5833,108.7482,295.2247,0,U,38992,999,5008,0,.127E-5,0
ECHOSTAR 16,2012-065A,2026-07-12T20:03:45.300672,1.00270781,.00021116,0.0179,57.0860,51.6665,61.4121,0,U,39008,999,4990,0,-.283E-5,0
ZHONGXING-12,2012-067A,2026-07-13T01:54:10.724256,1.00271528,.00025675,0.0291,98.0347,13.9676,294.9950,0,U,39017,999,4976,0,-.208E-5,0
EUTELSAT 70B,2012-069A,2026-07-13T05:14:37.205952,1.00271206,.00036464,0.0607,356.3857,114.9687,328.8916,0,U,39020,999,4977,0,-.45E-6,0
YAMAL 402,2012-070A,2026-07-13T13:43:29.343360,1.00270742,.000353,1.3301,83.8289,25.3483,83.0293,0,U,39022,999,4966,0,.81E-6,0
SKYNET 5D,2012-075A,2026-07-13T05:09:37.683936,1.00269230,.00033312,0.0682,353.4131,128.7681,299.0761,0,U,39034,999,4942,0,.97E-6,0
MEXSAT 3,2012-075B,2026-07-13T06:37:25.385664,1.00269692,.00009537,0.0137,340.3855,120.7379,174.6060,0,U,39035,999,731,0,-.28E-6,0
TDRS 11,2013-004A,2026-07-13T06:36:11.710656,1.00278737,.00046297,3.5588,31.6694,30.8713,153.4635,0,U,39070,999,4695,0,.76E-6,0
AMAZONAS 3,2013-006A,2026-07-13T07:10:37.375680,1.00271032,.00032509,0.0114,255.5687,256.7711,185.4951,0,U,39078,999,4517,0,0,0
AZERSPACE 1,2013-006B,2026-07-13T06:50:17.812032,1.00269127,.00016441,0.0156,351.5080,156.2004,292.0192,0,U,39079,999,4906,0,.131E-5,0
SBIRS GEO-2 (USA 241),2013-011A,2026-07-12T21:49:43.263264,1.00271121,.00020718,4.5434,52.5094,50.9973,104.9139,0,U,39120,999,4879,0,-.291E-5,0
EUTELSAT 117 WEST A,2013-012A,2026-07-13T06:36:17.811360,1.00271532,.00026219,0.0185,47.3146,71.0860,155.0177,0,U,39122,999,4869,0,-.16E-6,0
ANIK G1,2013-014A,2026-07-13T06:47:05.262720,1.00271227,.00016213,0.0469,255.8213,228.8477,160.9558,0,U,39127,999,4851,0,-.77E-6,0
ZHONGXING-11,2013-020A,2026-07-13T02:52:21.571968,1.00269550,.00020428,0.0300,49.3340,36.8557,345.8019,0,U,39157,999,4815,0,-.292E-5,0
EUTELSAT 7B,2013-022A,2026-07-12T23:48:38.857824,1.00272442,.00034846,0.0651,8.8294,37.7967,248.4088,0,U,39163,999,4820,0,.47E-6,0
WGS F5 (USA 243),2013-024A,2026-07-13T02:56:57.450624,1.00269252,.00003361,0.0261,52.4901,193.8062,36.4525,0,U,39168,999,4743,0,0,0
SES-6,2013-026A,2026-07-13T06:52:38.585280,1.00271373,.00022839,0.0287,321.1847,161.8238,230.8192,0,U,39172,999,4798,0,-.264E-5,0
IRNSS-1A,2013-034A,2026-07-10T17:17:25.712736,1.00281941,.0017567,35.7704,63.5328,183.4462,356.2994,0,U,39199,999,4760,0,.47E-6,0
MUOS-2,2013-036A,2026-07-13T07:33:15.444576,1.00272077,.00525377,5.0458,45.5543,176.3781,354.5233,0,U,39206,999,4745,0,-.19E-6,0
